GOES 18                 
1 51850U 22021A   26094.24313838  .00000096  00000+0  00000+0 0  9992
2 51850   0.0488  36.1429 0000810  39.6540  67.2980  1.00274048  5858
GOES 19                 
1 60133U 24119A   26094.80308310 -.00000248  00000+0  00000+0 0  9997
2 60133   0.0448  39.4656 0000971  21.2278 346.3323  1.00271622  6228
